[{"OBJECT_NAME":"INTELSAT 15 (IS-15)","OBJECT_ID":"2009-067A","EPOCH":"2026-04-25T21:02:21.931008","MEAN_MOTION":1.00271876,"ECCENTRICITY":0.0002233,"INCLINATION":0.029,"RA_OF_ASC_NODE":92.7672,"ARG_OF_PERICENTER":301.0145,"MEAN_ANOMALY":220.8502,"EPHEMERIS_TYPE":0,"CLASSIFICATION_TYPE":"U","NORAD_CAT_ID":36106,"ELEMENT_SET_NO":999,"REV_AT_EPOCH":4070,"BSTAR":0,"MEAN_MOTION_DOT":-1.99e-6,"MEAN_MOTION_DDOT":0},{"OBJECT_NAME":"WGS F3 (USA 211)","OBJECT_ID":"2009-068A","EPOCH":"2026-04-25T16:24:52.975872","MEAN_MOTION":1.00271073,"ECCENTRICITY":4.6e-6,"INCLINATION":0.3923,"RA_OF_ASC_NODE":85.3929,"ARG_OF_PERICENTER":282.8747,"MEAN_ANOMALY":321.6546,"EPHEMERIS_TYPE":0,"CLASSIFICATION_TYPE":"U","NORAD_CAT_ID":36108,"ELEMENT_SET_NO":999,"REV_AT_EPOCH":4606,"BSTAR":0,"MEAN_MOTION_DOT":5.1e-7,"MEAN_MOTION_DDOT":0},{"OBJECT_NAME":"DIRECTV 12","OBJECT_ID":"2009-075A","EPOCH":"2026-04-25T14:24:04.078080","MEAN_MOTION":1.00271849,"ECCENTRICITY":1.8e-5,"INCLINATION":0.0284,"RA_OF_ASC_NODE":90.2119,"ARG_OF_PERICENTER":294.2966,"MEAN_ANOMALY":302.3934,"EPHEMERIS_TYPE":0,"CLASSIFICATION_TYPE":"U","NORAD_CAT_ID":36131,"ELEMENT_SET_NO":999,"REV_AT_EPOCH":4602,"BSTAR":0,"MEAN_MOTION_DOT":-1.17e-6,"MEAN_MOTION_DDOT":0},{"OBJECT_NAME":"BEIDOU-2 G1","OBJECT_ID":"2010-001A","EPOCH":"2026-04-25T19:28:56.889120","MEAN_MOTION":1.00269351,"ECCENTRICITY":0.0003643,"INCLINATION":4.1731,"RA_OF_ASC_NODE":60.5479,"ARG_OF_PERICENTER":294.7509,"MEAN_ANOMALY":291.2263,"EPHEMERIS_TYPE":0,"CLASSIFICATION_TYPE":"U","NORAD_CAT_ID":36287,"ELEMENT_SET_NO":999,"REV_AT_EPOCH":5964,"BSTAR":0,"MEAN_MOTION_DOT":-2.91e-6,"MEAN_MOTION_DDOT":0},{"OBJECT_NAME":"SDO","OBJECT_ID":"2010-005A","EPOCH":"2026-04-25T09:58:43.614048","MEAN_MOTION":1.0027261,"ECCENTRICITY":0.000112,"INCLINATION":34.5445,"RA_OF_ASC_NODE":87.1361,"ARG_OF_PERICENTER":34.5839,"MEAN_ANOMALY":139.6162,"EPHEMERIS_TYPE":0,"CLASSIFICATION_TYPE":"U","NORAD_CAT_ID":36395,"ELEMENT_SET_NO":999,"REV_AT_EPOCH":5953,"BSTAR":0,"MEAN_MOTION_DOT":-6.0e-7,"MEAN_MOTION_DDOT":0},{"OBJECT_NAME":"INTELSAT 16 (IS-16)","OBJECT_ID":"2010-006A","EPOCH":"2026-04-25T20:49:38.771040","MEAN_MOTION":1.0027165,"ECCENTRICITY":0.0002054,"INCLINATION":0.0073,"RA_OF_ASC_NODE":128.9114,"ARG_OF_PERICENTER":289.366,"MEAN_ANOMALY":31.8187,"EPHEMERIS_TYPE":0,"CLASSIFICATION_TYPE":"U","NORAD_CAT_ID":36397,"ELEMENT_SET_NO":999,"REV_AT_EPOCH":5912,"BSTAR":0,"MEAN_MOTION_DOT":-2.58e-6,"MEAN_MOTION_DDOT":0},{"OBJECT_NAME":"EWS-G2 (GOES 15)","OBJECT_ID":"2010-008A","EPOCH":"2026-04-25T19:02:40.039872","MEAN_MOTION":1.00272333,"ECCENTRICITY":0.000388,"INCLINATION":1.1398,"RA_OF_ASC_NODE":83.801,"ARG_OF_PERICENTER":23.6059,"MEAN_ANOMALY":95.321,"EPHEMERIS_TYPE":0,"CLASSIFICATION_TYPE":"U","NORAD_CAT_ID":36411,"ELEMENT_SET_NO":999,"REV_AT_EPOCH":5911,"BSTAR":0,"MEAN_MOTION_DOT":1.0e-7,"MEAN_MOTION_DDOT":0},{"OBJECT_NAME":"ECHOSTAR 14","OBJECT_ID":"2010-010A","EPOCH":"2026-04-25T14:52:38.686080","MEAN_MOTION":1.002705,"ECCENTRICITY":0.0001688,"INCLINATION":0.0189,"RA_OF_ASC_NODE":248.3512,"ARG_OF_PERICENTER":160.6146,"MEAN_ANOMALY":268.9289,"EPHEMERIS_TYPE":0,"CLASSIFICATION_TYPE":"U","NORAD_CAT_ID":36499,"ELEMENT_SET_NO":999,"REV_AT_EPOCH":4602,"BSTAR":0,"MEAN_MOTION_DOT":-1.3e-7,"MEAN_MOTION_DDOT":0},{"OBJECT_NAME":"SES-1","OBJECT_ID":"2010-016A","EPOCH":"2026-04-25T10:02:49.073856","MEAN_MOTION":1.00270798,"ECCENTRICITY":0.0002603,"INCLINATION":0.0263,"RA_OF_ASC_NODE":287.7755,"ARG_OF_PERICENTER":107.3666,"MEAN_ANOMALY":227.9903,"EPHEMERIS_TYPE":0,"CLASSIFICATION_TYPE":"U","NORAD_CAT_ID":36516,"ELEMENT_SET_NO":999,"REV_AT_EPOCH":5850,"BSTAR":0,"MEAN_MOTION_DOT":-1.28e-6,"MEAN_MOTION_DDOT":0},{"OBJECT_NAME":"ASTRA 3B","OBJECT_ID":"2010-021A","EPOCH":"2026-04-25T18:51:18.629856","MEAN_MOTION":1.00268703,"ECCENTRICITY":0.0003902,"INCLINATION":1.3345,"RA_OF_ASC_NODE":84.1514,"ARG_OF_PERICENTER":319.1226,"MEAN_ANOMALY":116.8793,"EPHEMERIS_TYPE":0,"CLASSIFICATION_TYPE":"U","NORAD_CAT_ID":36581,"ELEMENT_SET_NO":999,"REV_AT_EPOCH":5834,"BSTAR":0,"MEAN_MOTION_DOT":1.24e-6,"MEAN_MOTION_DDOT":0},{"OBJECT_NAME":"COMSATBW-2","OBJECT_ID":"2010-021B","EPOCH":"2026-04-25T20:08:38.475744","MEAN_MOTION":1.00268516,"ECCENTRICITY":0.0002611,"INCLINATION":0.015,"RA_OF_ASC_NODE":244.0736,"ARG_OF_PERICENTER":159.0127,"MEAN_ANOMALY":126.106,"EPHEMERIS_TYPE":0,"CLASSIFICATION_TYPE":"U","NORAD_CAT_ID":36582,"ELEMENT_SET_NO":999,"REV_AT_EPOCH":5843,"BSTAR":0,"MEAN_MOTION_DOT":7.4e-7,"MEAN_MOTION_DDOT":0},{"OBJECT_NAME":"BEIDOU-2 G3","OBJECT_ID":"2010-024A","EPOCH":"2026-04-25T20:49:59.748096","MEAN_MOTION":1.00269979,"ECCENTRICITY":0.0008518,"INCLINATION":4.3942,"RA_OF_ASC_NODE":61.7188,"ARG_OF_PERICENTER":336.808,"MEAN_ANOMALY":207.4908,"EPHEMERIS_TYPE":0,"CLASSIFICATION_TYPE":"U","NORAD_CAT_ID":36590,"ELEMENT_SET_NO":999,"REV_AT_EPOCH":5824,"BSTAR":0,"MEAN_MOTION_DOT":-1.45e-6,"MEAN_MOTION_DDOT":0}]
